start=new Date('2022-12-09T00:00:00.000Z').valueOf();
sats=[{"TLE_LINE2":"2 50161  53.2176 189.5834 0002876  33.5360 326.5814 15.08863442 56719","RCS_SIZE":"LARGE","BSTAR":"0.00017162000000","TIME_SYSTEM":"UTC","ARG_OF_PERICENTER":"33.5360","APOAPSIS":"541.663","CLASSIFICATION_TYPE":"U","DECAY_DATE":null,"MEAN_MOTION":"15.08863442","REV_AT_EPOCH":"5671","TLE_LINE1":"1 50161U 21125F   22342.28593435  .00002446  00000-0  17162-3 0  9992","FILE":"3684881","OBJECT_NAME":"STARLINK-3304","ECCENTRICITY":"0.00028760","ELEMENT_SET_NO":"999","MEAN_MOTION_DDOT":"0.0000000000000","OBJECT_ID":"2021-125F","SITE":"AFWTR","MEAN_MOTION_DOT":"0.00002446","REF_FRAME":"TEME","GP_ID":"219785496","RA_OF_ASC_NODE":"189.5834","PERIOD":"95.436","MEAN_ELEMENT_THEORY":"SGP4","INCLINATION":"53.2176","SEMIMAJOR_AXIS":"6917.809","COUNTRY_CODE":"US","CENTER_NAME":"EARTH","OBJECT_TYPE":"PAYLOAD","NORAD_CAT_ID":"50161","EPHEMERIS_TYPE":"0","LAUNCH_DATE":"2021-12-18","PERIAPSIS":"537.684","MEAN_ANOMALY":"326.5814","EPOCH":"2022-12-08T06:51:44.727840"},{"ELEMENT_SET_NO":"999","ECCENTRICITY":"0.00029610","OBJECT_NAME":"STARLINK-3303","FILE":"3684925","SITE":"AFWTR","OBJECT_ID":"2021-125G","MEAN_MOTION_DDOT":"0.0000000000000","APOAPSIS":"417.668","ARG_OF_PERICENTER":"48.2823","TIME_SYSTEM":"UTC","BSTAR":"0.00037149000000","RCS_SIZE":"LARGE","TLE_LINE2":"2 50162  53.2169  43.0908 0002961  48.2823 311.8440 15.50366896 59342","TLE_LINE1":"1 50162U 21125G   22342.86858015  .00021052  00000-0  37149-3 0  9996","REV_AT_EPOCH":"5934","DECAY_DATE":null,"CLASSIFICATION_TYPE":"U","MEAN_MOTION":"15.50366896","CENTER_NAME":"EARTH","COUNTRY_CODE":"US","SEMIMAJOR_AXIS":"6793.791","INCLINATION":"53.2169","MEAN_ELEMENT_THEORY":"SGP4","RA_OF_ASC_NODE":"43.0908","PERIOD":"92.881","PERIAPSIS":"413.644","EPOCH":"2022-12-08T20:50:45.324960","MEAN_ANOMALY":"311.8440","LAUNCH_DATE":"2021-12-18","EPHEMERIS_TYPE":"0","OBJECT_TYPE":"PAYLOAD","NORAD_CAT_ID":"50162","REF_FRAME":"TEME","MEAN_MOTION_DOT":"0.00021052","GP_ID":"219810288"},{"GP_ID":"219810038","MEAN_MOTION_DOT":"-0.00000210","REF_FRAME":"TEME","LAUNCH_DATE":"2021-12-18","EPHEMERIS_TYPE":"0","OBJECT_TYPE":"PAYLOAD","NORAD_CAT_ID":"50163","EPOCH":"2022-12-08T19:12:23.635584","PERIAPSIS":"537.865","MEAN_ANOMALY":"317.5271","SEMIMAJOR_AXIS":"6917.905","COUNTRY_CODE":"US","INCLINATION":"53.2184","MEAN_ELEMENT_THEORY":"SGP4","RA_OF_ASC_NODE":"167.2772","PERIOD":"95.438","CENTER_NAME":"EARTH","REV_AT_EPOCH":"5755","DECAY_DATE":null,"MEAN_MOTION":"15.08831999","CLASSIFICATION_TYPE":"U","TLE_LINE1":"1 50163U 21125H   22342.80027356 -.00000210  00000-0  49651-5 0  9994","BSTAR":"0.00000496510000","RCS_SIZE":"LARGE","TLE_LINE2":"2 50163  53.2184 167.2772 0002754  42.5935 317.5271 15.08831999 57559","APOAPSIS":"541.675","ARG_OF_PERICENTER":"42.5935","TIME_SYSTEM":"UTC","OBJECT_ID":"2021-125H","MEAN_MOTION_DDOT":"0.0000000000000","SITE":"AFWTR","FILE":"3684925","ELEMENT_SET_NO":"999","ECCENTRICITY":"0.00027540","OBJECT_NAME":"STARLINK-3306"},{"MEAN_MOTION_DDOT":"0.0000000000000","OBJECT_ID":"2021-125K","SITE":"AFWTR","FILE":"3684614","OBJECT_NAME":"STARLINK-3298","ELEMENT_SET_NO":"999","ECCENTRICITY":"0.00028180","MEAN_MOTION":"15.08837945","DECAY_DATE":null,"CLASSIFICATION_TYPE":"U","REV_AT_EPOCH":"5718","TLE_LINE1":"1 50165U 21125K   22341.87379641 -.00001189  00000-0 -56591-4 0  9996","TLE_LINE2":"2 50165  53.2173 191.4490 0002818  40.9133 319.2070 15.08837945 57180","RCS_SIZE":"LARGE","BSTAR":"-0.00005659100000","TIME_SYSTEM":"UTC","APOAPSIS":"541.701","ARG_OF_PERICENTER":"40.9133","OBJECT_TYPE":"PAYLOAD","NORAD_CAT_ID":"50165","LAUNCH_DATE":"2021-12-18","EPHEMERIS_TYPE":"0","PERIAPSIS":"537.802","EPOCH":"2022-12-07T20:58:16.009824","MEAN_ANOMALY":"319.2070","MEAN_ELEMENT_THEORY":"SGP4","PERIOD":"95.438","RA_OF_ASC_NODE":"191.4490","SEMIMAJOR_AXIS":"6917.887","COUNTRY_CODE":"US","INCLINATION":"53.2173","CENTER_NAME":"EARTH","GP_ID":"219777103","MEAN_MOTION_DOT":"-0.00001189","REF_FRAME":"TEME"},{"GP_ID":"219777346","MEAN_MOTION_DOT":"-0.00000413","REF_FRAME":"TEME","NORAD_CAT_ID":"50166","OBJECT_TYPE":"PAYLOAD","LAUNCH_DATE":"2021-12-18","EPHEMERIS_TYPE":"0","MEAN_ANOMALY":"355.2086","PERIAPSIS":"537.897","EPOCH":"2022-12-08T07:03:41.109984","MEAN_ELEMENT_THEORY":"SGP4","RA_OF_ASC_NODE":"179.5518","PERIOD":"95.437","SEMIMAJOR_AXIS":"6917.873","COUNTRY_CODE":"US","INCLINATION":"53.2160","CENTER_NAME":"EARTH","DECAY_DATE":null,"CLASSIFICATION_TYPE":"U","MEAN_MOTION":"15.08842416","REV_AT_EPOCH":"5733","TLE_LINE1":"1 50166U 21125L   22342.29422581 -.00000413  00000-0 -77983-5 0  9994","RCS_SIZE":"LARGE","TLE_LINE2":"2 50166  53.2160 179.5518 0002661   4.8932 355.2086 15.08842416 57330","BSTAR":"-0.00000779830000","TIME_SYSTEM":"UTC","APOAPSIS":"541.579","ARG_OF_PERICENTER":"4.8932","MEAN_MOTION_DDOT":"0.0000000000000","OBJECT_ID":"2021-125L","SITE":"AFWTR","FILE":"3684614","OBJECT_NAME":"STARLINK-3305","ELEMENT_SET_NO":"999","ECCENTRICITY":"0.00026610"},{"OBJECT_NAME":"STARLINK-3271","ECCENTRICITY":"0.00022600","ELEMENT_SET_NO":"999","FILE":"3684614","SITE":"AFWTR","MEAN_MOTION_DDOT":"0.0000000000000","OBJECT_ID":"2021-125M","TIME_SYSTEM":"UTC","ARG_OF_PERICENTER":"46.8311","APOAPSIS":"541.278","TLE_LINE2":"2 50167  53.2149 190.8795 0002260  46.8311 313.2869 15.08850080 57152","RCS_SIZE":"LARGE","BSTAR":"0.00003066400000","TLE_LINE1":"1 50167U 21125M   22341.99890265  .00000200  00000-0  30664-4 0  9995","DECAY_DATE":null,"CLASSIFICATION_TYPE":"U","MEAN_MOTION":"15.08850080","REV_AT_EPOCH":"5715","CENTER_NAME":"EARTH","RA_OF_ASC_NODE":"190.8795","PERIOD":"95.437","MEAN_ELEMENT_THEORY":"SGP4","INCLINATION":"53.2149","SEMIMAJOR_AXIS":"6917.850","COUNTRY_CODE":"US","PERIAPSIS":"538.151","MEAN_ANOMALY":"313.2869","EPOCH":"2022-12-07T23:58:25.188960","NORAD_CAT_ID":"50167","OBJECT_TYPE":"PAYLOAD","EPHEMERIS_TYPE":"0","LAUNCH_DATE":"2021-12-18","REF_FRAME":"TEME","MEAN_MOTION_DOT":"0.00000200","GP_ID":"219776104"},{"CENTER_NAME":"EARTH","SEMIMAJOR_AXIS":"6917.878","COUNTRY_CODE":"US","INCLINATION":"53.2169","MEAN_ELEMENT_THEORY":"SGP4","RA_OF_ASC_NODE":"178.3756","PERIOD":"95.438","PERIAPSIS":"537.523","MEAN_ANOMALY":"317.3327","EPOCH":"2022-12-08T13:19:56.186688","LAUNCH_DATE":"2021-12-18","EPHEMERIS_TYPE":"0","NORAD_CAT_ID":"50168","OBJECT_TYPE":"PAYLOAD","REF_FRAME":"TEME","MEAN_MOTION_DOT":"0.00001987","GP_ID":"219785506","ELEMENT_SET_NO":"999","ECCENTRICITY":"0.00032090","OBJECT_NAME":"STARLINK-3296","FILE":"3684881","SITE":"AFWTR","OBJECT_ID":"2021-125N","MEAN_MOTION_DDOT":"0.0000000000000","APOAPSIS":"541.963","ARG_OF_PERICENTER":"42.7915","TIME_SYSTEM":"UTC","BSTAR":"0.00014293000000","RCS_SIZE":"LARGE","TLE_LINE2":"2 50168  53.2169 178.3756 0003209  42.7915 317.3327 15.08840859 54280","TLE_LINE1":"1 50168U 21125N   22342.55551142  .00001987  00000-0  14293-3 0  9999","REV_AT_EPOCH":"5428","DECAY_DATE":null,"MEAN_MOTION":"15.08840859","CLASSIFICATION_TYPE":"U"},{"REF_FRAME":"TEME","MEAN_MOTION_DOT":"0.00000812","GP_ID":"219785337","CENTER_NAME":"EARTH","INCLINATION":"53.2150","SEMIMAJOR_AXIS":"6917.885","COUNTRY_CODE":"US","RA_OF_ASC_NODE":"179.6958","PERIOD":"95.438","MEAN_ELEMENT_THEORY":"SGP4","EPOCH":"2022-12-08T06:16:00.415488","PERIAPSIS":"537.737","MEAN_ANOMALY":"322.4654","EPHEMERIS_TYPE":"0","LAUNCH_DATE":"2021-12-18","NORAD_CAT_ID":"50169","OBJECT_TYPE":"PAYLOAD","ARG_OF_PERICENTER":"37.6542","APOAPSIS":"541.763","TIME_SYSTEM":"UTC","BSTAR":"0.00006915900000","TLE_LINE2":"2 50169  53.2150 179.6958 0002910  37.6542 322.4654 15.08838393 54253","RCS_SIZE":"LARGE","TLE_LINE1":"1 50169U 21125P   22342.26111592  .00000812  00000-0  69159-4 0  9997","REV_AT_EPOCH":"5425","CLASSIFICATION_TYPE":"U","DECAY_DATE":null,"MEAN_MOTION":"15.08838393","ECCENTRICITY":"0.00029100","ELEMENT_SET_NO":"999","OBJECT_NAME":"STARLINK-3301","FILE":"3684881","SITE":"AFWTR","OBJECT_ID":"2021-125P","MEAN_MOTION_DDOT":"0.0000000000000"},{"MEAN_MOTION_DOT":"0.00008497","REF_FRAME":"TEME","GP_ID":"219809037","RA_OF_ASC_NODE":"177.2309","PERIOD":"95.435","MEAN_ELEMENT_THEORY":"SGP4","INCLINATION":"53.2184","COUNTRY_CODE":"US","SEMIMAJOR_AXIS":"6917.754","CENTER_NAME":"EARTH","NORAD_CAT_ID":"50170","OBJECT_TYPE":"PAYLOAD","EPHEMERIS_TYPE":"0","LAUNCH_DATE":"2021-12-18","PERIAPSIS":"537.487","EPOCH":"2022-12-08T19:30:50.396256","MEAN_ANOMALY":"325.3585","RCS_SIZE":"LARGE","TLE_LINE2":"2 50170  53.2184 177.2309 0003082  34.7608 325.3585 15.08881211 57411","BSTAR":"0.00055068000000","TIME_SYSTEM":"UTC","ARG_OF_PERICENTER":"34.7608","APOAPSIS":"541.751","MEAN_MOTION":"15.08881211","DECAY_DATE":null,"CLASSIFICATION_TYPE":"U","REV_AT_EPOCH":"5741","TLE_LINE1":"1 50170U 21125Q   22342.81308329  .00008497  00000-0  55068-3 0  9996","FILE":"3684925","OBJECT_NAME":"STARLINK-3245","ECCENTRICITY":"0.00030820","ELEMENT_SET_NO":"999","MEAN_MOTION_DDOT":"0.0000000000000","OBJECT_ID":"2021-125Q","SITE":"AFWTR"},{"ARG_OF_PERICENTER":"41.2977","APOAPSIS":"541.733","TIME_SYSTEM":"UTC","BSTAR":"0.00004393000000","TLE_LINE2":"2 50171  53.2167 181.6213 0002851  41.2977 318.8231 15.08835035 56788","RCS_SIZE":"LARGE","TLE_LINE1":"1 50171U 21125R   22341.83423645  .00000411  00000-0  43930-4 0  9991","REV_AT_EPOCH":"5678","CLASSIFICATION_TYPE":"U","DECAY_DATE":null,"MEAN_MOTION":"15.08835035","ECCENTRICITY":"0.00028510","ELEMENT_SET_NO":"999","OBJECT_NAME":"STARLINK-3286","FILE":"3684515","SITE":"AFWTR","OBJECT_ID":"2021-125R","MEAN_MOTION_DDOT":"0.0000000000000","REF_FRAME":"TEME","MEAN_MOTION_DOT":"0.00000411","GP_ID":"219751785","CENTER_NAME":"EARTH","INCLINATION":"53.2167","SEMIMAJOR_AXIS":"6917.896","COUNTRY_CODE":"US","RA_OF_ASC_NODE":"181.6213","PERIOD":"95.438","MEAN_ELEMENT_THEORY":"SGP4","EPOCH":"2022-12-07T20:01:18.029280","PERIAPSIS":"537.788","MEAN_ANOMALY":"318.8231","EPHEMERIS_TYPE":"0","LAUNCH_DATE":"2021-12-18","NORAD_CAT_ID":"50171","OBJECT_TYPE":"PAYLOAD"}];
